RADUGA 1 [-]            
1 08513U 75123A   22204.96015980  .00000016  00000+0  00000+0 0  9998
2 08513   6.4571 288.0657 0008412 211.6724 213.0990  1.00259748180533
RADUGA 2 [-]            
1 09416U 76092A   22204.76438279 -.00000051  00000+0  00000+0 0  9995
2 09416   7.1200 290.0427 0025245 358.3872   0.1030  1.00297659115055
RADUGA 3 [-]            
1 10159U 77071A   22205.55604779 -.00000333  00000+0  00000+0 0  9990
2 10159   7.7328 292.6041 0009682 228.4744  91.4586  1.00237475162769
RADUGA 4 [-]            
1 10987U 78073A   22204.89057480  .00000163  00000+0  00000+0 0  9999
2 10987   8.3568 296.0925 0007094   1.1398   2.7298  1.00267072105326
RADUGA 5 [-]            
1 11343U 79035A   22204.75535667 -.00000177  00000+0  00000+0 0  9994
2 11343   8.8150 298.8269 0007609 168.0645 192.1129  1.00273333115040
RADUGA 6 [-]            
1 11708U 80016A   22204.86299328  .00000097  00000+0  00000+0 0  9993
2 11708   9.1717 301.8676 0003688 187.8542 175.6735  1.00324916107889
RADUGA 7 [-]            
1 12003U 80081A   22205.09214181 -.00000207  00000+0  00000+0 0  9998
2 12003   9.3542 303.7978 0009437 253.8294 106.1865  1.00299622109024
RADUGA 8 [-]            
1 12351U 81027A   22204.78868852 -.00000143  00000+0  00000+0 0  9999
2 12351   9.6857 304.3963 0082964 227.3997 132.0546  1.00419163108246
RADUGA 9 [-]            
1 12618U 81069A   22204.96384296  .00000138  00000+0  00000+0 0  9999
2 12618   9.9013 307.3227 0005545 150.7162 235.4748  1.00324927 33060
RADUGA 10 [-]           
1 12897U 81102A   22204.79979971 -.00000139  00000+0  00000+0 0  9999
2 12897   9.9868 308.2921 0006901 173.6734 188.1689  1.00292460103066
RADUGA 11 [-]           
1 13669U 82113A   22204.89910733 -.00000040  00000+0  00000+0 0  9993
2 13669  12.0176 321.9043 0037511 252.2203 108.5712  0.97707834107624
RADUGA 12 [-]           
1 13974U 83028A   22204.95989150  .00000006  00000+0  00000+0 0  9995
2 13974  11.1185 317.9954 0004530 125.5775 268.8399  1.00276147155100
RADUGA 13 [-]           
1 14307U 83088A   22204.78730061 -.00000054  00000+0  00000+0 0  9992
2 14307  12.2639 323.4551 0015457  49.3712 311.1408  0.98173107104954
RADUGA 14 [-]           
1 14725U 84016A   22204.81507729 -.00000192  00000+0  00000+0 0  9998
2 14725  11.3215 321.7323 0006777 137.2407 221.9343  1.00281618103810
RADUGA 15 [-]           
1 15057U 84063A   22204.69132828 -.00000357  00000+0  00000+0 0  9992
2 15057  11.4430 322.7233 0006878 153.5422 191.7356  1.00330809126810
RADUGA 16 [-]           
1 15946U 85070A   22205.59540053  .00000079  00000+0  00000+0 0  9991
2 15946  11.8962 327.3634 0003510 146.0140 230.8136  1.00272971107951
RADUGA 17 [-]           
1 16250U 85107A   22205.23086556 -.00000295  00000+0  00000+0 0  9996
2 16250  12.0188 328.7425 0015593 176.5501 184.5944  1.00153939137417
RADUGA 18 [-]           
1 16497U 86007A   22205.53434064 -.00000062  00000+0  00000+0 0  9995
2 16497  12.8230 331.4415 0076590 164.0102  26.8309  0.98813243131794
RADUGA 19 [-]           
1 17046U 86082A   22204.99632697 -.00000092  00000+0  00000+0 0  9993
2 17046  13.2467 335.3635 0015031 144.9126 208.4030  0.98460725128883
RADUGA 20 [-]           
1 17611U 87028A   22204.66478787 -.00000154  00000+0  00000+0 0  9993
2 17611  15.2574 338.8920 0032341 135.2437  51.5521  0.95962321124646
RADUGA 21 [-]           
1 18631U 87100A   22205.54287682  .00000111  00000+0  00000+0 0  9999
2 18631  13.3304 336.2403 0004890 124.4772 240.3579  1.00272649126813
RADUGA 22 [-]           
1 19596U 88095A   22205.33859580 -.00000341  00000+0  00000+0 0  9999
2 19596  13.3083 340.5117 0008816 133.2624  82.7732  1.00244695107373
RADUGA 23 [-]           
1 19928U 89030A   22205.53556145  .00000129  00000+0  00000+0 0  9994
2 19928  13.4512 342.3253 0023113 158.4757  28.2311  1.00311317120575
RADUGA-1 1 [-]          
1 20083U 89048A   22205.52280654  .00000016  00000+0  00000+0 0  9990
2 20083  14.2008 345.3755 0023915 114.1180 278.4119  0.98707136117224
RADUGA 24 [-]           
1 20367U 89098A   22201.45388066 -.00000086  00000+0  00000+0 0  9992
2 20367  14.0266 344.6277 0003175 122.4392  67.6961  1.00205897118659
RADUGA 25 [-]           
1 20499U 90016A   22205.30249508 -.00000303  00000+0  00000+0 0  9997
2 20499  13.7920 345.2401 0006961 134.5015 236.0089  1.00204554118636
RADUGA 26 [-]           
1 21016U 90112A   22205.46897573  .00000019  00000+0  00000+0 0  9991
2 21016  14.0991 348.4941 0008833  93.8888  88.1699  1.00307628115987
RADUGA-1 2 [-]          
1 21038U 90116A   22205.46714451  .00000085  00000+0  00000+0 0  9995
2 21038  14.1365 348.5675 0010065 101.1336  71.0233  1.00253598 33062
RADUGA 27 [-]           
1 21132U 91014A   22205.10182104  .00000081  00000+0  00000+0 0  9999
2 21132  14.6478 348.1356 0005653 100.1533 267.8850  1.00265999115030
RADUGA 28 [-]           
1 21821U 91087A   22204.84354931 -.00000356  00000+0  00000+0 0  9999
2 21821  14.4089 351.8409 0009543 119.0901 242.5227  1.00218751112041
RADUGA 29 [-]           
1 22557U 93013A   22204.09864163  .00000108  00000+0  00000+0 0  9991
2 22557  14.6050 356.0286 0008420 112.2883 252.2442  1.00328686107393
RADUGA 30 [-]           
1 22836U 93062A   22205.47237654 -.00000131  00000+0  00000+0 0  9994
2 22836  14.6423 357.9807 0002350  58.5515 132.9414  1.00259571 31728
RADUGA-1 3 [-]          
1 22981U 94008A   22205.40527777 -.00000324  00000+0  00000+0 0  9991
2 22981  14.7187 359.1331 0005994 101.2549  88.1171  1.00261874104208
RADUGA 31 [-]           
1 23010U 94012A   22205.53904946  .00000069  00000+0  00000+0 0  9996
2 23010  14.6871 359.1294 0007155  94.7150  93.9574  1.00315299104071
RADUGA 32 [-]           
1 23448U 94087A   22200.97827205 -.00000145  00000+0  00000+0 0  9994
2 23448  14.6656   1.8742 0004473 178.6141 187.0648  1.00262532118565
RADUGA-1 4 [-]          
1 25642U 99010A   22205.10530906  .00000118  00000+0  00000+0 0  9991
2 25642  15.2077  13.4413 0000484 141.9122 219.4969  1.00283062 85673
RADUGA-1 5 [-]          
1 26477U 00049A   22205.07827323  .00000108  00000+0  00000+0 0  9999
2 26477  13.1464  18.2435 0007021  65.6276 290.0743  1.00261557 80136
RADUGA-1 6 [-]          
1 26936U 01045A   22204.83869060 -.00000178  00000+0  00000+0 0  9991
2 26936  13.2997  24.5461 0016011 156.5230 199.6018  0.97745725 74676
RADUGA-1 7 [-]          
1 28194U 04010A   22205.39563394 -.00000359  00000+0  00000+0 0  9998
2 28194  12.0103  31.3959 0002114 103.2174  79.1666  1.00260076 67144
RADUGA-1M 1 [-]         
1 32373U 07058A   22205.11350590  .00000036  00000+0  00000+0 0  9990
2 32373   6.9734  63.8203 0005333  24.0310 330.8357  0.99392447 38237
RADUGA-1 8 [-]          
1 34264U 09010A   22205.20327049  .00000124  00000+0  00000+0 0  9992
2 34264   9.2955  53.8324 0015006   5.7283   0.3459  0.99819510 48963
RADUGA-1M 2 [+]         
1 36358U 10002A   22205.57966361 -.00000181  00000+0  00000+0 0  9991
2 36358   0.0658 248.4882 0002282 271.2203  76.2350  1.00272076 35818
RADUGA-1M 3 [+]         
1 39375U 13062A   22205.53582304  .00000155  00000+0  00000+0 0  9999
2 39375   2.3234  89.3970 0003117 156.2055 284.4900  1.00272968 31854
